OBJECT_NAME,OBJECT_ID,EPOCH,MEAN_MOTION,ECCENTRICITY,INCLINATION,RA_OF_ASC_NODE,ARG_OF_PERICENTER,MEAN_ANOMALY,EPHEMERIS_TYPE,CLASSIFICATION_TYPE,NORAD_CAT_ID,ELEMENT_SET_NO,REV_AT_EPOCH,BSTAR,MEAN_MOTION_DOT,MEAN_MOTION_DDOT
ARIRANG-3 (KOMPSAT-3),2012-025B,2026-06-26T03:12:53.964288,14.62213411,.0006825,98.1174,134.4396,87.1579,273.0403,0,U,38338,999,75265,.90012E-4,.407E-5,0
METOP-B,2012-049A,2026-06-26T04:47:32.046144,14.21441599,.000167,98.6500,228.5189,353.2902,6.8253,0,U,38771,999,71454,.60883E-4,.9E-6,0
SJ-9A,2012-056A,2026-06-26T04:34:31.730592,14.85494225,.0024362,97.6712,148.8166,225.2976,134.6256,0,U,38860,999,70092,.11723E-3,.964E-5,0
COSMOS 2484 (RODNIK-S 6),2013-001C,2026-06-26T03:52:20.564832,12.42939427,.0026509,82.5011,216.3135,17.3675,342.8306,0,U,39059,999,60967,.31591E-3,.54E-6,0
SARAL,2013-009A,2026-06-26T04:31:45.979968,14.32857962,.0000684,98.5558,3.6419,235.7198,124.3922,0,U,39086,999,69689,.46027E-4,.82E-6,0
STRAND-1,2013-009E,2026-06-25T23:13:19.363008,14.37168122,.0008211,98.3924,356.9858,196.9027,163.1888,0,U,39090,999,69832,.10651E-3,.274E-5,0
BRITE-AUSTRIA,2013-009F,2026-06-25T23:37:19.886016,14.36545238,.000957,98.3998,356.2023,207.8221,152.2455,0,U,39091,999,69831,.67554E-4,.156E-5,0
GAOFEN-1,2013-018A,2026-06-26T05:04:38.492832,14.76544255,.0015853,97.9094,249.0963,234.8156,125.1570,0,U,39150,999,70957,.41833E-4,.241E-5,0
NEE-01 PEGASO,2013-018B,2026-06-25T08:54:48.053664,14.93700411,.001354,98.1231,320.7925,133.4455,226.7893,0,U,39151,999,71192,.23719E-3,.2452E-4,0
PROBA-V,2013-021A,2026-06-26T04:27:40.332672,14.23598958,.0005382,98.3589,155.3485,102.7870,257.3911,0,U,39159,999,68239,.54955E-4,.84E-6,0
ARIRANG-5 (KOMPSAT-5),2013-042A,2026-06-26T03:28:32.650176,15.04509032,.0005131,97.6191,3.7188,101.6100,258.5702,0,U,39227,999,70520,.97625E-4,.1306E-4,0
GONETS-M 5,2013-048A,2026-06-26T05:03:55.325664,12.42892040,.0016498,82.4834,337.7556,190.2101,169.8646,0,U,39249,999,58000,-.59912E-4,.2E-7,0
GONETS-M 7,2013-048C,2026-06-26T04:10:20.697024,12.42915121,.0017256,82.4902,340.7060,191.6569,168.4113,0,U,39251,999,57995,.60955E-3,.94E-6,0
FENGYUN 3C,2013-052A,2026-06-26T05:33:09.633600,14.15757065,.0014709,98.4983,150.6910,2.3428,357.7813,0,U,39260,999,65984,.67109E-4,.9E-6,0
CASSIOPE,2013-055A,2026-06-26T03:32:24.998784,15.26017461,.0289325,80.9146,55.8348,32.3461,329.5144,0,U,39265,999,66903,.54488E-3,.50256E-3,-.31733E-6
APRIZESAT 7,2013-066A,2026-06-25T21:00:01.683072,14.91580198,.0035753,97.7710,129.9700,179.9977,180.1248,0,U,39416,999,68252,.11626E-3,.1122E-4,0
ZACUBE-1 (TSHEPISOSAT),2013-066B,2026-06-26T04:56:12.194016,15.01234415,.0042047,97.8049,139.5889,216.9401,142.8926,0,U,39417,999,68208,.26694E-3,.3428E-4,0
APRIZESAT 8,2013-066K,2026-06-25T19:38:05.397792,14.87666692,.0044374,97.8222,124.1658,257.1749,102.4507,0,U,39425,999,68095,.95359E-4,.826E-5,0
TRITON-1,2013-066M,2026-06-26T00:10:16.120992,14.81732282,.0088981,97.8241,86.6133,204.7337,154.9598,0,U,39427,999,67539,.22538E-3,.1845E-4,0
