ARIRANG-3 (KOMPSAT-3)   
1 38338U 12025B   26177.13395792  .00000407  00000+0  90012-4 0  9993
2 38338  98.1174 134.4396 0006825  87.1579 273.0403 14.62213411752654
METOP-B                 
1 38771U 12049A   26177.19967646  .00000090  00000+0  60883-4 0  9990
2 38771  98.6500 228.5189 0001670 353.2902   6.8253 14.21441599714544
SJ-9A                   
1 38860U 12056A   26177.19064503  .00000964  00000+0  11723-3 0  9995
2 38860  97.6712 148.8166 0024362 225.2976 134.6256 14.85494225700922
COSMOS 2484 (RODNIK-S 6)
1 39059U 13001C   26177.16134913  .00000054  00000+0  31591-3 0  9992
2 39059  82.5011 216.3135 0026509  17.3675 342.8306 12.42939427609674
SARAL                   
1 39086U 13009A   26177.18872662  .00000082  00000+0  46027-4 0  9994
2 39086  98.5558   3.6419 0000684 235.7198 124.3922 14.32857962696892
STRAND-1                
1 39090U 13009E   26176.96758522  .00000274  00000+0  10651-3 0  9998
2 39090  98.3924 356.9858 0008211 196.9027 163.1888 14.37168122698326
BRITE-AUSTRIA           
1 39091U 13009F   26176.98425794  .00000156  00000+0  67554-4 0  9997
2 39091  98.3998 356.2023 0009570 207.8221 152.2455 14.36545238698316
GAOFEN-1                
1 39150U 13018A   26177.21155663  .00000241  00000+0  41833-4 0  9992
2 39150  97.9094 249.0963 0015853 234.8156 125.1570 14.76544255709574
NEE-01 PEGASO           
1 39151U 13018B   26176.37138951  .00002452  00000+0  23719-3 0  9998
2 39151  98.1231 320.7925 0013540 133.4455 226.7893 14.93700411711928
PROBA-V                 
1 39159U 13021A   26177.18588348  .00000084  00000+0  54955-4 0  9995
2 39159  98.3589 155.3485 0005382 102.7870 257.3911 14.23598958682395
ARIRANG-5 (KOMPSAT-5)   
1 39227U 13042A   26177.14482234  .00001306  00000+0  97625-4 0  9996
2 39227  97.6191   3.7188 0005131 101.6100 258.5702 15.04509032705206
GONETS-M 5              
1 39249U 13048A   26177.21105701  .00000002  00000+0 -59912-4 0  9995
2 39249  82.4834 337.7556 0016498 190.2101 169.8646 12.42892040580001
GONETS-M 7              
1 39251U 13048C   26177.17385066  .00000094  00000+0  60955-3 0  9995
2 39251  82.4902 340.7060 0017256 191.6569 168.4113 12.42915121579952
FENGYUN 3C              
1 39260U 13052A   26177.23136150  .00000090  00000+0  67109-4 0  9990
2 39260  98.4983 150.6910 0014709   2.3428 357.7813 14.15757065659842
CASSIOPE                
1 39265U 13055A   26177.14751156  .00050256 -31733-6  54488-3 0  9996
2 39265  80.9146  55.8348 0289325  32.3461 329.5144 15.26017461669031
APRIZESAT 7             
1 39416U 13066A   26176.87501948  .00001122  00000+0  11626-3 0  9997
2 39416  97.7710 129.9700 0035753 179.9977 180.1248 14.91580198682529
ZACUBE-1 (TSHEPISOSAT)  
1 39417U 13066B   26177.20569669  .00003428  00000+0  26694-3 0  9992
2 39417  97.8049 139.5889 0042047 216.9401 142.8926 15.01234415682088
APRIZESAT 8             
1 39425U 13066K   26176.81811803  .00000826  00000+0  95359-4 0  9991
2 39425  97.8222 124.1658 0044374 257.1749 102.4507 14.87666692680951
TRITON-1                
1 39427U 13066M   26177.00713103  .00001845  00000+0  22538-3 0  9999
2 39427  97.8241  86.6133 0088981 204.7337 154.9598 14.81732282675394
